{
  "norad_id": 64703,
  "name": "STARLINK-34470",
  "history": [
    {
      "epoch": "2026-03-28T20:11:09.173760",
      "apogee_km": 574.1479898104626,
      "perigee_km": 569.8211221345755,
      "latitude_deg": 69.98466262456283,
      "longitude_deg": 11.043526399880648,
      "semi_major_axis_km": 6950.121555972519,
      "eccentricity": 0.00031128,
      "inclination_deg": 69.9995,
      "raan_deg": 265.9738,
      "arg_perigee_deg": 272.5535,
      "mean_anomaly_deg": 87.5268,
      "mean_motion_rev_day": 14.98353068
    },
    {
      "epoch": "2026-03-29T04:00:01.999584",
      "apogee_km": 574.1196676558902,
      "perigee_km": 569.814773101788,
      "latitude_deg": 32.12559930567914,
      "longitude_deg": 42.30222175992094,
      "semi_major_axis_km": 6950.104220378838,
      "eccentricity": 0.0003097,
      "inclination_deg": 69.9993,
      "raan_deg": 265.1524,
      "arg_perigee_deg": 272.6977,
      "mean_anomaly_deg": 43.2295,
      "mean_motion_rev_day": 14.98358674
    }
  ]
}